{
  "type": "FeatureCollection",
  "features": [
    {
      "type": "Feature",
      "properties": {
        "norad_id": 29930,
        "name": "FENGYUN 1C DEB",
        "group": "fengyun-1c-debris",
        "lat": 65.23482574307502,
        "lon": 59.39966860958857,
        "alt_km": 715.6085283820412,
        "timestamp": "2025-12-03T04:52:29.909463+00:00",
        "meta_object_name": "FENGYUN 1C DEB",
        "meta_object_id": "1999-025JC",
        "meta_epoch": "2025-12-02T12:01:06.153888",
        "meta_mean_motion": 14.20798059,
        "meta_eccentricity": 0.01646754,
        "meta_inclination": 99.0445,
        "meta_ra_of_asc_node": 218.4826,
        "meta_arg_of_pericenter": 82.6616,
        "meta_mean_anomaly": 38.9759,
        "meta_ephemeris_type": 0,
        "meta_classification_type": "U",
        "meta_norad_cat_id": 29930,
        "meta_element_set_no": 999,
        "meta_rev_at_epoch": 97745,
        "meta_bstar": 0.00029092502,
        "meta_mean_motion_dot": 6.74e-06,
        "meta_mean_motion_ddot": 0,
        "tle_line1": "1 29930U 99025JC  25336.50076567  .00000674  00000+0  29093-3 0  9995",
        "tle_line2": "2 29930  99.0445 218.4826 0164675  82.6616  38.9759 14.20798059977453"
      },
      "geometry": {
        "type": "Point",
        "coordinates": [
          59.39966860958857,
          65.23482574307502
        ]
      }
    },
    {
      "type": "Feature",
      "properties": {
        "norad_id": 29931,
        "name": "FENGYUN 1C DEB",
        "group": "fengyun-1c-debris",
        "lat": -25.9468765587833,
        "lon": 17.10626333463302,
        "alt_km": 905.4508767118314,
        "timestamp": "2025-12-03T04:52:29.909473+00:00",
        "meta_object_name": "FENGYUN 1C DEB",
        "meta_object_id": "1999-025JD",
        "meta_epoch": "2025-12-02T17:34:50.992032",
        "meta_mean_motion": 14.03886312,
        "meta_eccentricity": 0.003266,
        "meta_inclination": 98.8612,
        "meta_ra_of_asc_node": 12.2942,
        "meta_arg_of_pericenter": 120.5739,
        "meta_mean_anomaly": 356.4233,
        "meta_ephemeris_type": 0,
        "meta_classification_type": "U",
        "meta_norad_cat_id": 29931,
        "meta_element_set_no": 999,
        "meta_rev_at_epoch": 96672,
        "meta_bstar": 6.1193e-05,
        "meta_mean_motion_dot": 5.4e-07,
        "meta_mean_motion_ddot": 0,
        "tle_line1": "1 29931U 99025JD  25336.73253463  .00000054  00000+0  61193-4 0  9993",
        "tle_line2": "2 29931  98.8612  12.2942 0032660 120.5739 356.4233 14.03886312966726"
      },
      "geometry": {
        "type": "Point",
        "coordinates": [
          17.10626333463302,
          -25.9468765587833
        ]
      }
    },
    {
      "type": "Feature",
      "properties": {
        "norad_id": 29932,
        "name": "FENGYUN 1C DEB",
        "group": "fengyun-1c-debris",
        "lat": -14.822237465266358,
        "lon": -9.525192352120769,
        "alt_km": 851.362514872304,
        "timestamp": "2025-12-03T04:52:29.909483+00:00",
        "meta_object_name": "FENGYUN 1C DEB",
        "meta_object_id": "1999-025JE",
        "meta_epoch": "2025-12-02T19:36:24.643296",
        "meta_mean_motion": 14.16744149,
        "meta_eccentricity": 0.0038658,
        "meta_inclination": 98.6345,
        "meta_ra_of_asc_node": 347.7956,
        "meta_arg_of_pericenter": 98.218,
        "meta_mean_anomaly": 78.8365,
        "meta_ephemeris_type": 0,
        "meta_classification_type": "U",
        "meta_norad_cat_id": 29932,
        "meta_element_set_no": 999,
        "meta_rev_at_epoch": 97443,
        "meta_bstar": 0.00036556,
        "meta_mean_motion_dot": 6.94e-06,
        "meta_mean_motion_ddot": 0,
        "tle_line1": "1 29932U 99025JE  25336.81695189  .00000694  00000+0  36556-3 0  9992",
        "tle_line2": "2 29932  98.6345 347.7956 0038658  98.2180  78.8365 14.16744149974436"
      },
      "geometry": {
        "type": "Point",
        "coordinates": [
          -9.525192352120769,
          -14.822237465266358
        ]
      }
    },
    {
      "type": "Feature",
      "properties": {
        "norad_id": 29933,
        "name": "FENGYUN 1C DEB",
        "group": "fengyun-1c-debris",
        "lat": -9.569055406106257,
        "lon": -101.69862166417936,
        "alt_km": 682.7685854601268,
        "timestamp": "2025-12-03T04:52:29.909493+00:00",
        "meta_object_name": "FENGYUN 1C DEB",
        "meta_object_id": "1999-025JF",
        "meta_epoch": "2025-12-02T18:45:33.058368",
        "meta_mean_motion": 14.65269071,
        "meta_eccentricity": 0.0003527,
        "meta_inclination": 98.75,
        "meta_ra_of_asc_node": 79.3409,
        "meta_arg_of_pericenter": 12.5727,
        "meta_mean_anomaly": 114.9242,
        "meta_ephemeris_type": 0,
        "meta_classification_type": "U",
        "meta_norad_cat_id": 29933,
        "meta_element_set_no": 999,
        "meta_rev_at_epoch": 98359,
        "meta_bstar": 0.0045367,
        "meta_mean_motion_dot": 0.00024489,
        "meta_mean_motion_ddot": 0,
        "tle_line1": "1 29933U 99025JF  25336.78163262  .00024489  00000+0  45367-2 0  9998",
        "tle_line2": "2 29933  98.7500  79.3409 0003527  12.5727 114.9242 14.65269071983598"
      },
      "geometry": {
        "type": "Point",
        "coordinates": [
          -101.69862166417936,
          -9.569055406106257
        ]
      }
    },
    {
      "type": "Feature",
      "properties": {
        "norad_id": 29934,
        "name": "FENGYUN 1C DEB",
        "group": "fengyun-1c-debris",
        "lat": -3.0776315833020216,
        "lon": -157.17546988893926,
        "alt_km": 695.0339925321387,
        "timestamp": "2025-12-03T04:52:29.909503+00:00",
        "meta_object_name": "FENGYUN 1C DEB",
        "meta_object_id": "1999-025JG",
        "meta_epoch": "2025-12-02T16:32:46.519584",
        "meta_mean_motion": 14.63633519,
        "meta_eccentricity": 0.0100651,
        "meta_inclination": 98.906,
        "meta_ra_of_asc_node": 22.7529,
        "meta_arg_of_pericenter": 283.4188,
        "meta_mean_anomaly": 75.5809,
        "meta_ephemeris_type": 0,
        "meta_classification_type": "U",
        "meta_norad_cat_id": 29934,
        "meta_element_set_no": 999,
        "meta_rev_at_epoch": 99625,
        "meta_bstar": 0.0011351,
        "meta_mean_motion_dot": 6.293e-05,
        "meta_mean_motion_ddot": 0,
        "tle_line1": "1 29934U 99025JG  25336.68942731  .00006293  00000+0  11351-2 0  9993",
        "tle_line2": "2 29934  98.9060  22.7529 0100651 283.4188  75.5809 14.63633519996251"
      },
      "geometry": {
        "type": "Point",
        "coordinates": [
          -157.17546988893926,
          -3.0776315833020216
        ]
      }
    },
    {
      "type": "Feature",
      "properties": {
        "norad_id": 29935,
        "name": "FENGYUN 1C DEB",
        "group": "fengyun-1c-debris",
        "lat": -24.810996068900685,
        "lon": -144.04701096875223,
        "alt_km": 765.3828486716329,
        "timestamp": "2025-12-03T04:52:29.909513+00:00",
        "meta_object_name": "FENGYUN 1C DEB",
        "meta_object_id": "1999-025JH",
        "meta_epoch": "2025-12-02T16:36:27.066816",
        "meta_mean_motion": 14.1422975,
        "meta_eccentricity": 0.01497667,
        "meta_inclination": 98.463,
        "meta_ra_of_asc_node": 39.4153,
        "meta_arg_of_pericenter": 245.1585,
        "meta_mean_anomaly": 240.0157,
        "meta_ephemeris_type": 0,
        "meta_classification_type": "U",
        "meta_norad_cat_id": 29935,
        "meta_element_set_no": 999,
        "meta_rev_at_epoch": 97400,
        "meta_bstar": 0.00018484739,
        "meta_mean_motion_dot": 3.51e-06,
        "meta_mean_motion_ddot": 0,
        "tle_line1": "1 29935U 99025JH  25336.69197994  .00000351  00000+0  18485-3 0  9993",
        "tle_line2": "2 29935  98.4630  39.4153 0149766 245.1585 240.0157 14.14229750974002"
      },
      "geometry": {
        "type": "Point",
        "coordinates": [
          -144.04701096875223,
          -24.810996068900685
        ]
      }
    },
    {
      "type": "Feature",
      "properties": {
        "norad_id": 29936,
        "name": "FENGYUN 1C DEB",
        "group": "fengyun-1c-debris",
        "lat": -62.05929485741068,
        "lon": -106.13994620729716,
        "alt_km": 709.3280238879415,
        "timestamp": "2025-12-03T04:52:29.909523+00:00",
        "meta_object_name": "FENGYUN 1C DEB",
        "meta_object_id": "1999-025JJ",
        "meta_epoch": "2025-12-02T19:22:43.120128",
        "meta_mean_motion": 14.35289488,
        "meta_eccentricity": 0.0113515,
        "meta_inclination": 98.6562,
        "meta_ra_of_asc_node": 90.1549,
        "meta_arg_of_pericenter": 216.4814,
        "meta_mean_anomaly": 142.8599,
        "meta_ephemeris_type": 0,
        "meta_classification_type": "U",
        "meta_norad_cat_id": 29936,
        "meta_element_set_no": 999,
        "meta_rev_at_epoch": 98788,
        "meta_bstar": 0.00027574,
        "meta_mean_motion_dot": 8.02e-06,
        "meta_mean_motion_ddot": 0,
        "tle_line1": "1 29936U 99025JJ  25336.80744352  .00000802  00000+0  27574-3 0  9993",
        "tle_line2": "2 29936  98.6562  90.1549 0113515 216.4814 142.8599 14.35289488987887"
      },
      "geometry": {
        "type": "Point",
        "coordinates": [
          -106.13994620729716,
          -62.05929485741068
        ]
      }
    }
  ]
}